start=new Date('2021-08-22T00:00:00.000Z').valueOf();
sats=[{"APOAPSIS":"548.085","SEMIMAJOR_AXIS":"6925.372","MEAN_MOTION_DOT":"0.00000366","TLE_LINE2":"2 46159  53.0555 211.8983 0001224  52.0693 308.0407 15.06392339 57012","GP_ID":"183213510","MEAN_MOTION_DDOT":"0.0000000000000","OBJECT_ID":"2020-057AU","RCS_SIZE":"LARGE","CLASSIFICATION_TYPE":"U","EPHEMERIS_TYPE":"0","ELEMENT_SET_NO":"999","ARG_OF_PERICENTER":"52.0693","COUNTRY_CODE":"US","LAUNCH_DATE":"2020-08-18","REV_AT_EPOCH":"5701","TIME_SYSTEM":"UTC","INCLINATION":"53.0555","SITE":"AFETR","MEAN_ANOMALY":"308.0407","BSTAR":"0.00004345800000","NORAD_CAT_ID":"46159","ECCENTRICITY":"0.00012240","OBJECT_TYPE":"PAYLOAD","CENTER_NAME":"EARTH","EPOCH":"2021-08-21T23:12:48.508704","TLE_LINE1":"1 46159U 20057AU  21233.96722811  .00000366  00000-0  43458-4 0  9999","MEAN_MOTION":"15.06392339","OBJECT_NAME":"STARLINK-1595","REF_FRAME":"TEME","FILE":"3101032","DECAY_DATE":null,"MEAN_ELEMENT_THEORY":"SGP4","RA_OF_ASC_NODE":"211.8983","PERIOD":"95.593","PERIAPSIS":"546.389"},{"ELEMENT_SET_NO":"999","ARG_OF_PERICENTER":"49.3431","LAUNCH_DATE":"2020-08-18","COUNTRY_CODE":"US","REV_AT_EPOCH":"5727","APOAPSIS":"548.107","MEAN_MOTION_DOT":"-0.00001546","SEMIMAJOR_AXIS":"6925.353","TLE_LINE2":"2 46160  53.0535 192.2364 0001283  49.3431 310.7669 15.06398443 57271","GP_ID":"183214761","OBJECT_ID":"2020-057AV","MEAN_MOTION_DDOT":"0.0000000000000","RCS_SIZE":"LARGE","EPHEMERIS_TYPE":"0","CLASSIFICATION_TYPE":"U","CENTER_NAME":"EARTH","OBJECT_NAME":"STARLINK-1598","TLE_LINE1":"1 46160U 20057AV  21233.89166000 -.00001546  00000-0 -84891-4 0  9994","MEAN_MOTION":"15.06398443","EPOCH":"2021-08-21T21:23:59.424000","REF_FRAME":"TEME","DECAY_DATE":null,"FILE":"3101032","RA_OF_ASC_NODE":"192.2364","MEAN_ELEMENT_THEORY":"SGP4","PERIAPSIS":"546.330","PERIOD":"95.592","INCLINATION":"53.0535","TIME_SYSTEM":"UTC","BSTAR":"-0.00008489100000","SITE":"AFETR","MEAN_ANOMALY":"310.7669","NORAD_CAT_ID":"46160","ECCENTRICITY":"0.00012830","OBJECT_TYPE":"PAYLOAD"},{"APOAPSIS":"548.154","SEMIMAJOR_AXIS":"6925.360","MEAN_MOTION_DOT":"0.00000511","TLE_LINE2":"2 46161  53.0535 192.0373 0001341  52.6701 307.4410 15.06396132 56697","GP_ID":"183216066","MEAN_MOTION_DDOT":"0.0000000000000","OBJECT_ID":"2020-057AW","RCS_SIZE":"LARGE","CLASSIFICATION_TYPE":"U","EPHEMERIS_TYPE":"0","ELEMENT_SET_NO":"999","ARG_OF_PERICENTER":"52.6701","COUNTRY_CODE":"US","LAUNCH_DATE":"2020-08-18","REV_AT_EPOCH":"5669","TIME_SYSTEM":"UTC","INCLINATION":"53.0535","MEAN_ANOMALY":"307.4410","SITE":"AFETR","BSTAR":"0.00005318700000","NORAD_CAT_ID":"46161","ECCENTRICITY":"0.00013410","OBJECT_TYPE":"PAYLOAD","CENTER_NAME":"EARTH","MEAN_MOTION":"15.06396132","TLE_LINE1":"1 46161U 20057AW  21233.93590011  .00000511  00000-0  53187-4 0  9996","OBJECT_NAME":"STARLINK-1600","EPOCH":"2021-08-21T22:27:41.769504","REF_FRAME":"TEME","FILE":"3101048","DECAY_DATE":null,"MEAN_ELEMENT_THEORY":"SGP4","RA_OF_ASC_NODE":"192.0373","PERIOD":"95.592","PERIAPSIS":"546.297"},{"PERIOD":"95.592","PERIAPSIS":"546.648","MEAN_ELEMENT_THEORY":"SGP4","RA_OF_ASC_NODE":"192.3181","FILE":"3101032","DECAY_DATE":null,"REF_FRAME":"TEME","TLE_LINE1":"1 46162U 20057AX  21233.87323143 -.00000968  00000-0 -46093-4 0  9996","MEAN_MOTION":"15.06396723","EPOCH":"2021-08-21T20:57:27.195552","OBJECT_NAME":"STARLINK-1603","CENTER_NAME":"EARTH","OBJECT_TYPE":"PAYLOAD","ECCENTRICITY":"0.00008310","NORAD_CAT_ID":"46162","MEAN_ANOMALY":"293.4471","SITE":"AFETR","BSTAR":"-0.00004609300000","TIME_SYSTEM":"UTC","INCLINATION":"53.0534","REV_AT_EPOCH":"5728","COUNTRY_CODE":"US","LAUNCH_DATE":"2020-08-18","ARG_OF_PERICENTER":"66.6606","ELEMENT_SET_NO":"999","CLASSIFICATION_TYPE":"U","EPHEMERIS_TYPE":"0","RCS_SIZE":"LARGE","MEAN_MOTION_DDOT":"0.0000000000000","OBJECT_ID":"2020-057AX","GP_ID":"183213763","TLE_LINE2":"2 46162  53.0534 192.3181 0000831  66.6606 293.4471 15.06396723 57282","SEMIMAJOR_AXIS":"6925.359","MEAN_MOTION_DOT":"-0.00000968","APOAPSIS":"547.799"},{"GP_ID":"183185882","TLE_LINE2":"2 46163  53.0549 173.8163 0001719  45.5322 314.5808 15.06392469 56258","SEMIMAJOR_AXIS":"6925.372","MEAN_MOTION_DOT":"-0.00000676","APOAPSIS":"548.427","CLASSIFICATION_TYPE":"U","EPHEMERIS_TYPE":"0","RCS_SIZE":"LARGE","MEAN_MOTION_DDOT":"0.0000000000000","OBJECT_ID":"2020-057AY","COUNTRY_CODE":"US","LAUNCH_DATE":"2020-08-18","ARG_OF_PERICENTER":"45.5322","ELEMENT_SET_NO":"999","REV_AT_EPOCH":"5625","MEAN_ANOMALY":"314.5808","SITE":"AFETR","BSTAR":"-0.00002648600000","TIME_SYSTEM":"UTC","INCLINATION":"53.0549","OBJECT_TYPE":"PAYLOAD","ECCENTRICITY":"0.00017190","NORAD_CAT_ID":"46163","TLE_LINE1":"1 46163U 20057AY  21233.53965441 -.00000676  00000-0 -26486-4 0  9993","EPOCH":"2021-08-21T12:57:06.141024","MEAN_MOTION":"15.06392469","OBJECT_NAME":"STARLINK-1610","CENTER_NAME":"EARTH","PERIOD":"95.593","PERIAPSIS":"546.046","MEAN_ELEMENT_THEORY":"SGP4","RA_OF_ASC_NODE":"173.8163","FILE":"3100831","DECAY_DATE":null,"REF_FRAME":"TEME"},{"REV_AT_EPOCH":"5751","COUNTRY_CODE":"US","LAUNCH_DATE":"2020-08-18","ARG_OF_PERICENTER":"47.8395","ELEMENT_SET_NO":"999","CLASSIFICATION_TYPE":"U","EPHEMERIS_TYPE":"0","RCS_SIZE":"LARGE","MEAN_MOTION_DDOT":"0.0000000000000","OBJECT_ID":"2020-057AZ","GP_ID":"183185633","TLE_LINE2":"2 46164  53.0554 173.8410 0001750  47.8395 312.2742 15.06403008 57514","SEMIMAJOR_AXIS":"6925.339","MEAN_MOTION_DOT":"-0.00000763","APOAPSIS":"548.416","PERIOD":"95.592","PERIAPSIS":"545.992","MEAN_ELEMENT_THEORY":"SGP4","RA_OF_ASC_NODE":"173.8410","DECAY_DATE":null,"FILE":"3100831","REF_FRAME":"TEME","MEAN_MOTION":"15.06403008","TLE_LINE1":"1 46164U 20057AZ  21233.53597184 -.00000763  00000-0 -32328-4 0  9998","EPOCH":"2021-08-21T12:51:47.966976","OBJECT_NAME":"STARLINK-1612","CENTER_NAME":"EARTH","OBJECT_TYPE":"PAYLOAD","ECCENTRICITY":"0.00017500","NORAD_CAT_ID":"46164","MEAN_ANOMALY":"312.2742","SITE":"AFETR","BSTAR":"-0.00003232800000","TIME_SYSTEM":"UTC","INCLINATION":"53.0554"},{"REV_AT_EPOCH":"5643","ELEMENT_SET_NO":"999","ARG_OF_PERICENTER":"56.0768","LAUNCH_DATE":"2020-08-18","COUNTRY_CODE":"US","OBJECT_ID":"2020-057BA","MEAN_MOTION_DDOT":"0.0000000000000","RCS_SIZE":"LARGE","EPHEMERIS_TYPE":"0","CLASSIFICATION_TYPE":"U","APOAPSIS":"547.950","MEAN_MOTION_DOT":"0.00000476","SEMIMAJOR_AXIS":"6925.349","TLE_LINE2":"2 46165  53.0545 211.4052 0001062  56.0768 304.0321 15.06399718 56432","GP_ID":"183216118","REF_FRAME":"TEME","FILE":"3101052","DECAY_DATE":null,"RA_OF_ASC_NODE":"211.4052","MEAN_ELEMENT_THEORY":"SGP4","PERIAPSIS":"546.479","PERIOD":"95.592","CENTER_NAME":"EARTH","TLE_LINE1":"1 46165U 20057BA  21234.07783138  .00000476  00000-0  50846-4 0  9999","OBJECT_NAME":"STARLINK-1613","MEAN_MOTION":"15.06399718","EPOCH":"2021-08-22T01:52:04.631232","NORAD_CAT_ID":"46165","ECCENTRICITY":"0.00010620","OBJECT_TYPE":"PAYLOAD","INCLINATION":"53.0545","TIME_SYSTEM":"UTC","BSTAR":"0.00005084600000","MEAN_ANOMALY":"304.0321","SITE":"AFETR"},{"REV_AT_EPOCH":"5643","ARG_OF_PERICENTER":"61.2088","LAUNCH_DATE":"2020-08-18","COUNTRY_CODE":"US","ELEMENT_SET_NO":"999","EPHEMERIS_TYPE":"0","CLASSIFICATION_TYPE":"U","OBJECT_ID":"2020-057BB","MEAN_MOTION_DDOT":"0.0000000000000","RCS_SIZE":"LARGE","TLE_LINE2":"2 46166  53.0537 211.5095 0001126  61.2088 298.9014 15.06394424 56435","GP_ID":"183216317","APOAPSIS":"548.010","MEAN_MOTION_DOT":"-0.00000650","SEMIMAJOR_AXIS":"6925.366","RA_OF_ASC_NODE":"211.5095","MEAN_ELEMENT_THEORY":"SGP4","PERIAPSIS":"546.451","PERIOD":"95.592","REF_FRAME":"TEME","DECAY_DATE":null,"FILE":"3101053","MEAN_MOTION":"15.06394424","TLE_LINE1":"1 46166U 20057BB  21234.05199337 -.00000650  00000-0 -24756-4 0  9997","EPOCH":"2021-08-22T01:14:52.227168","OBJECT_NAME":"STARLINK-1615","CENTER_NAME":"EARTH","ECCENTRICITY":"0.00011260","OBJECT_TYPE":"PAYLOAD","NORAD_CAT_ID":"46166","BSTAR":"-0.00002475600000","MEAN_ANOMALY":"298.9014","SITE":"AFETR","INCLINATION":"53.0537","TIME_SYSTEM":"UTC"},{"GP_ID":"183213511","TLE_LINE2":"2 46167  53.0543 213.2362 0001140  36.5520 323.5546 15.06408533 55713","MEAN_MOTION_DOT":"0.00000712","SEMIMAJOR_AXIS":"6925.322","APOAPSIS":"547.977","EPHEMERIS_TYPE":"0","CLASSIFICATION_TYPE":"U","RCS_SIZE":"LARGE","OBJECT_ID":"2020-057BC","MEAN_MOTION_DDOT":"0.0000000000000","LAUNCH_DATE":"2020-08-18","COUNTRY_CODE":"US","ARG_OF_PERICENTER":"36.5520","ELEMENT_SET_NO":"999","REV_AT_EPOCH":"5571","BSTAR":"0.00006665000000","MEAN_ANOMALY":"323.5546","SITE":"AFETR","INCLINATION":"53.0543","TIME_SYSTEM":"UTC","OBJECT_TYPE":"PAYLOAD","ECCENTRICITY":"0.00011400","NORAD_CAT_ID":"46167","TLE_LINE1":"1 46167U 20057BC  21233.66865711  .00000712  00000-0  66650-4 0  9996","EPOCH":"2021-08-21T16:02:51.974304","MEAN_MOTION":"15.06408533","OBJECT_NAME":"STARLINK-1626","CENTER_NAME":"EARTH","PERIAPSIS":"546.398","PERIOD":"95.592","RA_OF_ASC_NODE":"213.2362","MEAN_ELEMENT_THEORY":"SGP4","FILE":"3101032","DECAY_DATE":null,"REF_FRAME":"TEME"},{"RCS_SIZE":"LARGE","MEAN_MOTION_DDOT":"0.0000000000000","OBJECT_ID":"2020-057BD","CLASSIFICATION_TYPE":"U","EPHEMERIS_TYPE":"0","SEMIMAJOR_AXIS":"6925.356","MEAN_MOTION_DOT":"-0.00000590","APOAPSIS":"548.512","GP_ID":"183214762","TLE_LINE2":"2 46168  53.0539 162.4747 0001865  60.9581 299.1595 15.06397720 56430","REV_AT_EPOCH":"5643","ELEMENT_SET_NO":"999","COUNTRY_CODE":"US","LAUNCH_DATE":"2020-08-18","ARG_OF_PERICENTER":"60.9581","NORAD_CAT_ID":"46168","OBJECT_TYPE":"PAYLOAD","ECCENTRICITY":"0.00018650","TIME_SYSTEM":"UTC","INCLINATION":"53.0539","SITE":"AFETR","MEAN_ANOMALY":"299.1595","BSTAR":"-0.00002073300000","FILE":"3101032","DECAY_DATE":null,"REF_FRAME":"TEME","PERIOD":"95.592","PERIAPSIS":"545.929","MEAN_ELEMENT_THEORY":"SGP4","RA_OF_ASC_NODE":"162.4747","CENTER_NAME":"EARTH","EPOCH":"2021-08-21T20:06:59.656608","TLE_LINE1":"1 46168U 20057BD  21233.83819047 -.00000590  00000-0 -20733-4 0  9995","MEAN_MOTION":"15.06397720","OBJECT_NAME":"STARLINK-1627"}];
